STARLINK-3116
1 19146C 21082S   21326.12779038 -.00032425  00000-0 -27162-3 0  3261
2 19146  69.9990 292.9042 0003760 285.4342  33.4406 15.69779002    17
